[
    {
        "Altitude(m)": 612513.9160091294,
        "Argument of Periapsis(deg)": 0.0,
        "Eccentricity": 0.0,
        "Inclination(deg)": 60.0,
        "Latitude(deg)": -28.13591278219466,
        "Longitude(deg)": 27.913169462971766,
        "Mean Anomaly(deg)": -147.2727,
        "RAAN(deg)": 290.0,
        "Satellite Name": "Test1 1289",
        "Satellite Number": 1289,
        "Semi-Major Axis(m)": 6980739.136638005,
        "Time(s)": 0
    },
    {
        "Altitude(m)": 612708.2835990834,
        "Argument of Periapsis(deg)": 0.00010418945913296404,
        "Eccentricity": 0.0,
        "Inclination(deg)": 60.0,
        "Latitude(deg)": -28.64765130450513,
        "Longitude(deg)": 28.270400845966353,
        "Mean Anomaly(deg)": -146.65259385453814,
        "RAAN(deg)": 289.99957995086027,
        "Satellite Name": "Test1 1289",
        "Satellite Number": 1289,
        "Semi-Major Axis(m)": 6980739.136638005,
        "Time(s)": 10
    }
]